ORBCOMM FM24            
1 25478U 98053D   25355.00669563  .00000743  00000+0  28608-3 0  9996
2 25478  45.0072 102.9470 0001924 135.8336 224.2666 14.38672957424341
ORBCOMM FM25            
1 25479U 98053E   25354.49582419  .00000761  00000+0  29230-3 0  9995
2 25479  45.0064 103.6712 0004234 121.3630 238.7633 14.38639608424568
ORBCOMM FM26            
1 25480U 98053F   25354.70366452  .00000608  00000+0  24783-3 0  9996
2 25480  45.0062 100.5400 0006339 132.8786 227.2595 14.37611136424481
ORBCOMM FM27            
1 25481U 98053G   25355.03479412  .00000852  00000+0  32150-3 0  9993
2 25481  45.0050 101.2443 0001636 186.1382 173.9447 14.38675901424577
ORBCOMM FM28            
1 25482U 98053H   25355.19040240  .00000630  00000+0  24903-3 0  9995
2 25482  45.0062  37.7757 0004831 186.0292 174.0499 14.38804006425289
ORBCOMM FM30            
1 25980U 99065A   25355.15865671  .00000545  00000+0  22630-3 0  9991
2 25980  45.0319 284.4218 0006345 241.6075 118.4134 14.37779751361351
ORBCOMM FM31            
1 25981U 99065B   25355.14070203  .00000628  00000+0  25386-3 0  9993
2 25981  45.0230 277.9590 0004524 272.8359  87.1972 14.37707959360905
ORBCOMM FM32            
1 25982U 99065C   25354.19807918  .00000604  00000+0  25042-3 0  9992
2 25982  45.0165 300.2459 0006943 257.5418 102.4654 14.36763379361344
